STARLINK-32388          
1 62144U 24224F   26068.29801380  .00030112  00000+0  10993-2 0  9994
2 62144  42.9965 167.7919 0000514 206.7672 153.3153 15.27580355 72331
FLOCK 4G-25             
1 62646U 25009AP  26068.74572546  .00010373  00000+0  38902-3 0  9990
2 62646  97.4049 151.4141 0000828 316.3151  43.8023 15.27424196 63734
